0 DELTA 2 R/B(2)
1 22923U 93076C   13282.53905075  .00000019  00000-0  36122-2 0  9179
2 22923 023.5177 009.8409 7101983 068.4957 349.6936 02.24090257162463
0 DELTA 2 R/B(2)
1 22923U 93076C   13285.21615356  .00000028  00000-0  36122-2 0  9188
2 22923 023.5182 008.9532 7102510 070.0555 349.3440 02.24089889162529
0 DELTA 2 R/B(2)
1 22923U 93076C   13288.33938699 -.00000048  00000-0  36122-2 0  9196
2 22923 023.5092 007.9442 7102119 071.8405 348.9202 02.24091220162596
0 DELTA 2 R/B(2)
1 22923U 93076C   13290.57026230  .00000039  00000-0  14497-2 0  9217
2 22923 023.5222 007.1784 7104539 073.1522 348.5983 02.24090243162647
0 DELTA 2 R/B(2)
1 22923U 93076C   13290.59542380 -.00000225  00000-0 -90708-3 0  9206
2 22923 023.5234 007.1770 7103636 073.1514 008.8949 02.24091435162645
0 DELTA 2 R/B(2)
1 22923U 93076C   13293.25630774 -.00000232  00000-0 -10794-2 0  9212
2 22923 023.5236 006.3027 7103911 074.6785 355.4858 02.24091399162701
0 DELTA 2 R/B(2)
1 22923U 93076C   13295.49912520 -.00000223  00000-0 -24467-2 0  9225
2 22923 023.5237 005.5653 7104243 075.9669 004.8118 02.24091676162759
